IRIDIUM 119             
1 42959U 17061E   24182.81331613  .00000122  00000+0  36459-4 0  9992
2 42959  86.3977 324.6185 0002141 101.2971 258.8465 14.34218819352132
IRIDIUM 132             
1 42961U 17061G   24182.42007704  .00000055  00000+0  12568-4 0  9993
2 42961  86.3978 324.7844 0002454  98.4704 261.6770 14.34218234352083
IRIDIUM 136             
1 42962U 17061H   24182.87039850  .00000384  00000+0  13018-3 0  9995
2 42962  86.3977 324.5993 0001970 100.7722 259.3696 14.34218438352161
IRIDIUM 139             
1 42963U 17061J   24182.87674438  .00000162  00000+0  50898-4 0  9995
2 42963  86.3981 324.6472 0002480 101.4239 258.7235 14.34216664352170
IRIDIUM 125             
1 42964U 17061K   24182.93382573  .00000224  00000+0  73022-4 0  9992
2 42964  86.3980 324.6711 0002120 107.2391 252.9036 14.34217694352191
IRIDIUM 135             
1 43070U 17083A   24182.76841495  .00000195  00000+0  62505-4 0  9990
2 43070  86.3961 261.3904 0002400  86.7061 273.4409 14.34218882341466
IRIDIUM 138             
1 43071U 17083B   24182.93332186  .00000440  00000+0  14999-3 0  9998
2 43071  86.3948 261.0369 0002058 102.0593 258.0833 14.34216475341472
